TEIKYOSAT-4 (OORURI)    
1 49396U 21102B   26068.67534185  .00002438  00000+0  15740-3 0  9994
2 49396  97.3797 101.9931 0010345 276.5421  83.4630 15.09119208237719
STARLINK-34348          
1 64152U 25112G   26068.72704418  .00005023  00000+0  35209-3 0  9995
2 64152  97.6022 121.5489 0001959  82.4342 277.7107 15.05647912 43315
